O3B MPOWER F1           
1 54755U 22174A   23228.04955013 -.00000027  00000+0  00000+0 0  9994
2 54755   0.0418  11.9714 0003992 204.8763  33.1861  5.00111867 13507
